[{"OBJECT_NAME":"ONEWEB-0662","OBJECT_ID":"2023-029AC","EPOCH":"2026-01-14T06:52:13.656288","MEAN_MOTION":13.14504285,"ECCENTRICITY":0.00017434,"INCLINATION":87.9017,"RA_OF_ASC_NODE":320.4317,"ARG_OF_PERICENTER":67.9974,"MEAN_ANOMALY":292.1341,"EPHEMERIS_TYPE":0,"CLASSIFICATION_TYPE":"U","NORAD_CAT_ID":55822,"ELEMENT_SET_NO":999,"REV_AT_EPOCH":13921,"BSTAR":0.00059704705,"MEAN_MOTION_DOT":2.34e-6,"MEAN_MOTION_DDOT":0},{"OBJECT_NAME":"ONEWEB-0663","OBJECT_ID":"2023-029AD","EPOCH":"2026-01-14T07:27:52.642080","MEAN_MOTION":13.20856593,"ECCENTRICITY":0.00015578,"INCLINATION":87.9242,"RA_OF_ASC_NODE":305.1938,"ARG_OF_PERICENTER":61.8729,"MEAN_ANOMALY":298.2562,"EPHEMERIS_TYPE":0,"CLASSIFICATION_TYPE":"U","NORAD_CAT_ID":55823,"ELEMENT_SET_NO":999,"REV_AT_EPOCH":14083,"BSTAR":2.4462719e-5,"MEAN_MOTION_DOT":2.3e-7,"MEAN_MOTION_DDOT":0},{"OBJECT_NAME":"ONEWEB-0664","OBJECT_ID":"2023-029AE","EPOCH":"2026-01-14T07:54:22.111776","MEAN_MOTION":13.20772481,"ECCENTRICITY":0.00020545,"INCLINATION":87.9223,"RA_OF_ASC_NODE":305.1903,"ARG_OF_PERICENTER":70.9845,"MEAN_ANOMALY":289.1511,"EPHEMERIS_TYPE":0,"CLASSIFICATION_TYPE":"U","NORAD_CAT_ID":55824,"ELEMENT_SET_NO":999,"REV_AT_EPOCH":14083,"BSTAR":-6.219624e-6,"MEAN_MOTION_DOT":1.0e-7,"MEAN_MOTION_DDOT":0},{"OBJECT_NAME":"ONEWEB-0665","OBJECT_ID":"2023-029AF","EPOCH":"2026-01-14T09:36:39.038112","MEAN_MOTION":13.1450241,"ECCENTRICITY":0.00016776,"INCLINATION":87.9023,"RA_OF_ASC_NODE":320.3808,"ARG_OF_PERICENTER":67.2862,"MEAN_ANOMALY":292.8445,"EPHEMERIS_TYPE":0,"CLASSIFICATION_TYPE":"U","NORAD_CAT_ID":55825,"ELEMENT_SET_NO":999,"REV_AT_EPOCH":13920,"BSTAR":-0.00032677398,"MEAN_MOTION_DOT":-1.08e-6,"MEAN_MOTION_DDOT":0},{"OBJECT_NAME":"ONEWEB-0666","OBJECT_ID":"2023-029AG","EPOCH":"2026-01-14T07:45:16.488000","MEAN_MOTION":13.20771326,"ECCENTRICITY":0.00018967,"INCLINATION":87.9225,"RA_OF_ASC_NODE":305.1812,"ARG_OF_PERICENTER":99.7088,"MEAN_ANOMALY":260.426,"EPHEMERIS_TYPE":0,"CLASSIFICATION_TYPE":"U","NORAD_CAT_ID":55826,"ELEMENT_SET_NO":999,"REV_AT_EPOCH":14084,"BSTAR":-3.5501111e-5,"MEAN_MOTION_DOT":-1.0e-8,"MEAN_MOTION_DDOT":0},{"OBJECT_NAME":"ONEWEB-0667","OBJECT_ID":"2023-029AH","EPOCH":"2026-01-14T07:36:11.521728","MEAN_MOTION":13.20771218,"ECCENTRICITY":0.00017552,"INCLINATION":87.9235,"RA_OF_ASC_NODE":305.1185,"ARG_OF_PERICENTER":69.8628,"MEAN_ANOMALY":290.2694,"EPHEMERIS_TYPE":0,"CLASSIFICATION_TYPE":"U","NORAD_CAT_ID":55827,"ELEMENT_SET_NO":999,"REV_AT_EPOCH":14083,"BSTAR":9.2888666e-5,"MEAN_MOTION_DOT":5.1e-7,"MEAN_MOTION_DDOT":0},{"OBJECT_NAME":"ONEWEB-0669","OBJECT_ID":"2023-029AJ","EPOCH":"2026-01-14T07:29:22.373664","MEAN_MOTION":13.20770285,"ECCENTRICITY":0.00023395,"INCLINATION":87.9226,"RA_OF_ASC_NODE":305.15,"ARG_OF_PERICENTER":80.9444,"MEAN_ANOMALY":279.1954,"EPHEMERIS_TYPE":0,"CLASSIFICATION_TYPE":"U","NORAD_CAT_ID":55828,"ELEMENT_SET_NO":999,"REV_AT_EPOCH":14083,"BSTAR":8.736018e-6,"MEAN_MOTION_DOT":1.7e-7,"MEAN_MOTION_DDOT":0},{"OBJECT_NAME":"ONEWEB-0670","OBJECT_ID":"2023-029AK","EPOCH":"2026-01-14T09:04:40.047456","MEAN_MOTION":13.14501654,"ECCENTRICITY":0.00019959,"INCLINATION":87.9018,"RA_OF_ASC_NODE":320.4051,"ARG_OF_PERICENTER":69.2195,"MEAN_ANOMALY":290.9148,"EPHEMERIS_TYPE":0,"CLASSIFICATION_TYPE":"U","NORAD_CAT_ID":55829,"ELEMENT_SET_NO":999,"REV_AT_EPOCH":13922,"BSTAR":0.0007077211,"MEAN_MOTION_DOT":2.75e-6,"MEAN_MOTION_DDOT":0},{"OBJECT_NAME":"ONEWEB-0671","OBJECT_ID":"2023-029AL","EPOCH":"2026-01-14T09:11:19.715712","MEAN_MOTION":13.19725027,"ECCENTRICITY":0.00018049,"INCLINATION":87.9228,"RA_OF_ASC_NODE":335.5844,"ARG_OF_PERICENTER":75.1486,"MEAN_ANOMALY":284.9847,"EPHEMERIS_TYPE":0,"CLASSIFICATION_TYPE":"U","NORAD_CAT_ID":55830,"ELEMENT_SET_NO":999,"REV_AT_EPOCH":13861,"BSTAR":9.825632e-5,"MEAN_MOTION_DOT":5.2e-7,"MEAN_MOTION_DDOT":0},{"OBJECT_NAME":"ONEWEB-0672","OBJECT_ID":"2023-029AM","EPOCH":"2026-01-14T07:22:33.515904","MEAN_MOTION":13.20771886,"ECCENTRICITY":0.00018556,"INCLINATION":87.9229,"RA_OF_ASC_NODE":305.1331,"ARG_OF_PERICENTER":83.9407,"MEAN_ANOMALY":276.1938,"EPHEMERIS_TYPE":0,"CLASSIFICATION_TYPE":"U","NORAD_CAT_ID":55831,"ELEMENT_SET_NO":999,"REV_AT_EPOCH":14083,"BSTAR":0.00015933348,"MEAN_MOTION_DOT":7.8e-7,"MEAN_MOTION_DDOT":0},{"OBJECT_NAME":"ONEWEB-0673","OBJECT_ID":"2023-029AN","EPOCH":"2026-01-14T10:27:31.498272","MEAN_MOTION":13.19724903,"ECCENTRICITY":0.00018228,"INCLINATION":87.9241,"RA_OF_ASC_NODE":335.5574,"ARG_OF_PERICENTER":76.253,"MEAN_ANOMALY":283.8806,"EPHEMERIS_TYPE":0,"CLASSIFICATION_TYPE":"U","NORAD_CAT_ID":55832,"ELEMENT_SET_NO":999,"REV_AT_EPOCH":13862,"BSTAR":0.00012821373,"MEAN_MOTION_DOT":6.4e-7,"MEAN_MOTION_DDOT":0},{"OBJECT_NAME":"ONEWEB-0674","OBJECT_ID":"2023-029AP","EPOCH":"2026-01-14T08:19:01.232256","MEAN_MOTION":13.14502841,"ECCENTRICITY":0.00021127,"INCLINATION":87.9019,"RA_OF_ASC_NODE":320.3889,"ARG_OF_PERICENTER":69.0054,"MEAN_ANOMALY":291.1302,"EPHEMERIS_TYPE":0,"CLASSIFICATION_TYPE":"U","NORAD_CAT_ID":55833,"ELEMENT_SET_NO":999,"REV_AT_EPOCH":13920,"BSTAR":-0.00018834926,"MEAN_MOTION_DOT":-5.7e-7,"MEAN_MOTION_DDOT":0},{"OBJECT_NAME":"ONEWEB-0675","OBJECT_ID":"2023-029AQ","EPOCH":"2026-01-14T10:49:08.370912","MEAN_MOTION":13.197256,"ECCENTRICITY":0.00016262,"INCLINATION":87.9228,"RA_OF_ASC_NODE":335.5756,"ARG_OF_PERICENTER":91.5635,"MEAN_ANOMALY":268.5684,"EPHEMERIS_TYPE":0,"CLASSIFICATION_TYPE":"U","NORAD_CAT_ID":55834,"ELEMENT_SET_NO":999,"REV_AT_EPOCH":13864,"BSTAR":0.00020362834,"MEAN_MOTION_DOT":9.4e-7,"MEAN_MOTION_DDOT":0},{"OBJECT_NAME":"ONEWEB-0720","OBJECT_ID":"2023-029AR","EPOCH":"2026-01-14T10:37:45.479136","MEAN_MOTION":13.19725864,"ECCENTRICITY":0.00015464,"INCLINATION":87.9221,"RA_OF_ASC_NODE":335.5771,"ARG_OF_PERICENTER":71.9377,"MEAN_ANOMALY":288.1924,"EPHEMERIS_TYPE":0,"CLASSIFICATION_TYPE":"U","NORAD_CAT_ID":55835,"ELEMENT_SET_NO":999,"REV_AT_EPOCH":13856,"BSTAR":0.00017737633,"MEAN_MOTION_DOT":8.4e-7,"MEAN_MOTION_DDOT":0},{"OBJECT_NAME":"ONEWEB-0537","OBJECT_ID":"2023-043A","EPOCH":"2026-01-14T05:23:39.132672","MEAN_MOTION":13.16595049,"ECCENTRICITY":0.00014736,"INCLINATION":87.9031,"RA_OF_ASC_NODE":259.4263,"ARG_OF_PERICENTER":85.8089,"MEAN_ANOMALY":274.3211,"EPHEMERIS_TYPE":0,"CLASSIFICATION_TYPE":"U","NORAD_CAT_ID":56046,"ELEMENT_SET_NO":999,"REV_AT_EPOCH":13870,"BSTAR":3.6322262e-5,"MEAN_MOTION_DOT":2.7e-7,"MEAN_MOTION_DDOT":0},{"OBJECT_NAME":"ONEWEB-0538","OBJECT_ID":"2023-043B","EPOCH":"2026-01-14T05:14:31.526880","MEAN_MOTION":13.16594488,"ECCENTRICITY":0.00012078,"INCLINATION":87.9031,"RA_OF_ASC_NODE":259.431,"ARG_OF_PERICENTER":82.0764,"MEAN_ANOMALY":278.0504,"EPHEMERIS_TYPE":0,"CLASSIFICATION_TYPE":"U","NORAD_CAT_ID":56047,"ELEMENT_SET_NO":999,"REV_AT_EPOCH":13871,"BSTAR":2.653191e-6,"MEAN_MOTION_DOT":1.4e-7,"MEAN_MOTION_DDOT":0}]
