ONEWEB-0662             
1 55822U 23029AC  26014.28626917  .00000234  00000+0  59705-3 0  9999
2 55822  87.9017 320.4317 0001743  67.9974 292.1341 13.14504285139214
ONEWEB-0663             
1 55823U 23029AD  26014.31102595  .00000023  00000+0  24463-4 0  9995
2 55823  87.9242 305.1938 0001557  61.8729 298.2562 13.20856593140839
ONEWEB-0664             
1 55824U 23029AE  26014.32942259  .00000010  00000+0 -62196-5 0  9999
2 55824  87.9223 305.1903 0002054  70.9845 289.1511 13.20772481140830
ONEWEB-0665             
1 55825U 23029AF  26014.40045183 -.00000108  00000+0 -32677-3 0  9997
2 55825  87.9023 320.3808 0001677  67.2862 292.8445 13.14502410139202
ONEWEB-0666             
1 55826U 23029AG  26014.32310750 -.00000001  00000+0 -35501-4 0  9996
2 55826  87.9225 305.1812 0001896  99.7088 260.4260 13.20771326140845
ONEWEB-0667             
1 55827U 23029AH  26014.31680002  .00000051  00000+0  92889-4 0  9991
2 55827  87.9235 305.1185 0001755  69.8628 290.2694 13.20771218140833
ONEWEB-0669             
1 55828U 23029AJ  26014.31206451  .00000017  00000+0  87360-5 0  9995
2 55828  87.9226 305.1500 0002339  80.9444 279.1954 13.20770285140832
ONEWEB-0670             
1 55829U 23029AK  26014.37824129  .00000275  00000+0  70772-3 0  9993
2 55829  87.9018 320.4051 0001995  69.2195 290.9148 13.14501654139225
ONEWEB-0671             
1 55830U 23029AL  26014.38286708  .00000052  00000+0  98256-4 0  9992
2 55830  87.9228 335.5844 0001804  75.1486 284.9847 13.19725027138613
ONEWEB-0672             
1 55831U 23029AM  26014.30733236  .00000078  00000+0  15933-3 0  9996
2 55831  87.9229 305.1331 0001855  83.9407 276.1938 13.20771886140832
ONEWEB-0673             
1 55832U 23029AN  26014.43578123  .00000064  00000+0  12821-3 0  9991
2 55832  87.9241 335.5574 0001822  76.2530 283.8806 13.19724903138628
ONEWEB-0674             
1 55833U 23029AP  26014.34654204 -.00000057  00000+0 -18835-3 0  9992
2 55833  87.9019 320.3889 0002112  69.0054 291.1302 13.14502841139205
ONEWEB-0675             
1 55834U 23029AQ  26014.45079133  .00000094  00000+0  20363-3 0  9995
2 55834  87.9228 335.5756 0001626  91.5635 268.5684 13.19725600138646
ONEWEB-0720             
1 55835U 23029AR  26014.44288749  .00000084  00000+0  17738-3 0  9991
2 55835  87.9221 335.5771 0001546  71.9377 288.1924 13.19725864138561
ONEWEB-0537             
1 56046U 23043A   26014.22475848  .00000027  00000+0  36322-4 0  9994
2 56046  87.9031 259.4263 0001473  85.8089 274.3211 13.16595049138707
ONEWEB-0538             
1 56047U 23043B   26014.21842045  .00000014  00000+0  26532-5 0  9990
2 56047  87.9031 259.4310 0001207  82.0764 278.0504 13.16594488138718
